SatCatId,ObjectName,LaunchYear,OrbitalPeriod,LaunchMass,StatusCode,Inclination,Status,UcsData,OrbitClassEstimated,LaunchSiteCountry,Owner,UseType,Purpose,LaunchVehicleClass,TLE1,TLE2,MeanMotion,Eccentricity,OrbitClass
56855,OBJECT K,2023,93.16,-1.0,+,97.37,Active,0,LEO,PRC,China,Unknown,Unknown,Unknown,1 56855U 23081K   24225.21977401  .00108444  00000+0  21874-2 0  9993,2 56855  97.3675 302.7734 0009277 191.7679 168.3355 15.46091710 66084,15.4609171,0.0009277,LEO
56856,OBJECT L,2023,94.49,-1.0,+,97.37,Active,0,LEO,PRC,China,Unknown,Unknown,Unknown,1 56856U 23081L   24225.17008485  .00045690  00000+0  18710-2 0  9994,2 56856  97.3720 296.1137 0001180 124.8555 235.2794 15.24151131 65624,15.24151131,0.000118,LEO
56857,OBJECT M,2023,93.16,-1.0,+,97.37,Active,0,LEO,PRC,China,Unknown,Unknown,Unknown,1 56857U 23081M   24225.20712742  .00113574  00000+0  22816-2 0  9996,2 56857  97.3673 302.8312 0009406 191.2137 168.8904 15.46189045 66089,15.46189045,0.0009406,LEO
56858,OBJECT N,2023,94.49,-1.0,+,97.37,Active,0,LEO,PRC,China,Unknown,Unknown,Unknown,1 56858U 23081N   24225.16976429  .00041127  00000+0  16848-2 0  9998,2 56858  97.3724 296.7296 0000779 148.8639 211.2645 15.24164406 65666,15.24164406,7.79e-05,LEO
56859,OBJECT P,2023,93.16,-1.0,+,97.38,Active,0,LEO,PRC,China,Unknown,Unknown,Unknown,1 56859U 23081P   24225.20368473  .00111110  00000+0  22394-2 0  9991,2 56859  97.3763 303.2532 0010294 191.0990 169.0034 15.46094115 66082,15.46094115,0.0010294,LEO
56860,OBJECT Q,2023,93.17,-1.0,+,97.37,Active,0,LEO,PRC,China,Unknown,Unknown,Unknown,1 56860U 23081Q   24225.20036979  .00114047  00000+0  23001-2 0  9994,2 56860  97.3654 302.7369 0009623 187.7667 172.3435 15.46070326 66082,15.46070326,0.0009623,LEO
56861,OBJECT R,2023,93.16,-1.0,+,97.37,Active,0,LEO,PRC,China,Unknown,Unknown,Unknown,1 56861U 23081R   24225.19720916  .00112263  00000+0  22644-2 0  9994,2 56861  97.3691 302.8919 0010033 187.3077 172.8028 15.46069564 66089,15.46069564,0.0010033,LEO
56862,OBJECT S,2023,93.16,-1.0,+,97.37,Active,0,LEO,PRC,China,Unknown,Unknown,Unknown,1 56862U 23081S   24224.93466369  .00127409  00000+0  25677-2 0  9992,2 56862  97.3732 302.8448 0010271 188.7399 171.3674 15.46033481 66045,15.46033481,0.0010271,LEO
56863,OBJECT T,2023,93.16,-1.0,+,97.37,Active,0,LEO,PRC,China,Unknown,Unknown,Unknown,1 56863U 23081T   24225.19065359  .00113907  00000+0  22906-2 0  9996,2 56863  97.3727 303.1264 0009891 187.6042 172.5059 15.46153346 66086,15.46153346,0.0009891,LEO
56864,OBJECT U,2023,93.16,-1.0,+,97.37,Active,0,LEO,PRC,China,Unknown,Unknown,Unknown,1 56864U 23081U   24225.18727951  .00113020  00000+0  22797-2 0  9993,2 56864  97.3730 303.1607 0009737 189.2487 170.8584 15.46069191 66080,15.46069191,0.0009737,LEO
56865,OBJECT V,2023,93.16,-1.0,+,97.37,Active,0,LEO,PRC,China,Unknown,Unknown,Unknown,1 56865U 23081V   24225.18460226  .00110693  00000+0  22293-2 0  9997,2 56865  97.3738 303.1752 0010237 190.9214 169.1814 15.46118475 66081,15.46118475,0.0010237,LEO
56866,OBJECT W,2023,94.79,-1.0,+,97.38,Active,0,LEO,PRC,China,Unknown,Unknown,Unknown,1 56866U 23081W   24224.36080931  .00022688  00000+0  10738-2 0  9995,2 56866  97.3752 295.0471 0015638 207.7290 152.3112 15.19251708 65470,15.19251708,0.0015638,LEO
56867,OBJECT X,2023,93.16,-1.0,+,97.38,Active,0,LEO,PRC,China,Unknown,Unknown,Unknown,1 56867U 23081X   24225.18147316  .00108867  00000+0  21932-2 0  9990,2 56867  97.3746 303.2023 0010624 191.7976 168.3026 15.46112510 66088,15.4611251,0.0010624,LEO
56868,OBJECT Y,2023,93.15,-1.0,+,97.37,Active,0,LEO,PRC,China,Unknown,Unknown,Unknown,1 56868U 23081Y   24225.17791290  .00112308  00000+0  22516-2 0  9990,2 56868  97.3741 303.2060 0010851 192.1948 167.9040 15.46237933 66090,15.46237933,0.0010851,LEO
56870,OBJECT AA,2023,93.16,-1.0,+,97.38,Active,0,LEO,PRC,China,Unknown,Unknown,Unknown,1 56870U 23081AA  24225.21655628  .00107901  00000+0  21744-2 0  9997,2 56870  97.3750 303.2429 0009279 191.6650 168.4386 15.46121237 66085,15.46121237,0.0009279,LEO
56871,OBJECT AB,2023,93.16,-1.0,+,97.37,Active,0,LEO,PRC,China,Unknown,Unknown,Unknown,1 56871U 23081AB  24224.88645403  .00131629  00000+0  26523-2 0  9994,2 56871  97.3672 302.4805 0009203 192.1891 167.9137 15.46032686 66030,15.46032686,0.0009203,LEO
56872,OBJECT AC,2023,93.17,-1.0,+,97.37,Active,0,LEO,PRC,China,Unknown,Unknown,Unknown,1 56872U 23081AC  24225.21342563  .00108466  00000+0  21885-2 0  9993,2 56872  97.3655 302.6839 0009523 189.1581 170.9496 15.46080544 66081,15.46080544,0.0009523,LEO
56874,LONGJIANG 3,2023,94.16,-1.0,+,49.12,Active,0,LEO,PRC,China,Unknown,Unknown,Unknown,1 56874U 23082A   24225.18746599  .00032214  00000+0  11172-2 0  9994,2 56874  49.1184 241.5523 0009546  36.5835 323.5761 15.29411472 65919,15.29411472,0.0009546,LEO
56876,STARLINK-6206,2023,95.84,-1.0,+,43.01,Active,0,LEO,USA,USA,Unknown,Unknown,Unknown,1 56876U 23083A   24224.97419538  .00002647  00000+0  21093-3 0  9994,2 56876  43.0066 325.0268 0001972 274.8037  85.2580 15.02547176 64410,15.02547176,0.0001972,LEO
56877,STARLINK-6209,2023,95.84,-1.0,+,43.0,Active,0,LEO,USA,USA,Unknown,Unknown,Unknown,1 56877U 23083B   24224.56757020 -.00002854  00000+0 -19626-3 0  9992,2 56877  43.0022 327.1290 0001255 270.8824  89.1875 15.02542331 64356,15.02542331,0.0001255,LEO
56878,STARLINK-6182,2023,95.84,-1.0,+,43.0,Active,0,LEO,USA,USA,Unknown,Unknown,Unknown,1 56878U 23083C   24224.97310931 -.00003355  00000+0 -23351-3 0  9991,2 56878  43.0024 325.0141 0000727  22.0820 338.0053 15.02518004 64418,15.02518004,7.27e-05,LEO
56879,STARLINK-5707,2023,95.84,-1.0,+,43.0,Active,0,LEO,USA,USA,Unknown,Unknown,Unknown,1 56879U 23083D   24224.96975497  .00001791  00000+0  14755-3 0  9993,2 56879  43.0051 324.9947 0001397 266.7670  93.3013 15.02549608 64416,15.02549608,0.0001397,LEO
56880,STARLINK-6177,2023,95.84,-1.0,+,43.0,Active,0,LEO,USA,USA,Unknown,Unknown,Unknown,1 56880U 23083E   24224.69386239  .00001717  00000+0  14209-3 0  9997,2 56880  43.0008 326.3595 0000824 253.9180 106.1571 15.02540702 65175,15.02540702,8.24e-05,LEO
56881,STARLINK-5853,2023,95.84,-1.0,+,43.0,Active,0,LEO,USA,USA,Unknown,Unknown,Unknown,1 56881U 23083F   24224.96755917  .00008587  00000+0  65003-3 0  9991,2 56881  43.0030 324.9744 0001201 298.3399  61.7323 15.02533069 64411,15.02533069,0.0001201,LEO
56882,STARLINK-6175,2023,95.84,-1.0,+,43.0,Active,0,LEO,USA,USA,Unknown,Unknown,Unknown,1 56882U 23083G   24224.62183564  .00001801  00000+0  14837-3 0  9999,2 56882  43.0020 326.6809 0001240 246.9003 113.1709 15.02540520 65169,15.0254052,0.000124,LEO
56883,STARLINK-6171,2023,95.84,-1.0,+,43.0,Active,0,LEO,USA,USA,Unknown,Unknown,Unknown,1 56883U 23083H   24224.96420733  .00001218  00000+0  10515-3 0  9990,2 56883  43.0012 324.9477 0000640 258.5438 101.5332 15.02545140 64410,15.0254514,6.4e-05,LEO
56884,STARLINK-5515,2023,95.84,-1.0,+,43.0,Active,0,LEO,USA,USA,Unknown,Unknown,Unknown,1 56884U 23083J   24224.74813637  .00003054  00000+0  24107-3 0  9998,2 56884  43.0047 325.9096 0001313 263.3271  96.7422 15.02527792 65187,15.02527792,0.0001313,LEO
56885,STARLINK-5095,2023,95.84,-1.0,+,43.0,Active,0,LEO,USA,USA,Unknown,Unknown,Unknown,1 56885U 23083K   24224.56201676  .00005721  00000+0  43813-3 0  9991,2 56885  43.0026 327.0839 0001170 235.1209 124.9523 15.02542337 64358,15.02542337,0.000117,LEO
56886,STARLINK-5496,2023,95.84,-1.0,+,43.0,Active,0,LEO,USA,USA,Unknown,Unknown,Unknown,1 56886U 23083L   24225.01292052  .00007878  00000+0  59726-3 0  9996,2 56886  43.0053 324.4538 0003012 259.2089 100.8414 15.02556749 64428,15.02556749,0.0003012,LEO
56887,STARLINK-6180,2023,95.84,-1.0,+,43.0,Active,0,LEO,USA,USA,Unknown,Unknown,Unknown,1 56887U 23083M   24224.68498599  .00001024  00000+0  90832-4 0  9994,2 56887  43.0017 326.2948 0001235 265.9645  94.1057 15.02534689 65171,15.02534689,0.0001235,LEO
56888,STARLINK-6181,2023,95.84,-1.0,+,43.0,Active,0,LEO,USA,USA,Unknown,Unknown,Unknown,1 56888U 23083N   24224.66721951  .00005925  00000+0  45315-3 0  9993,2 56888  43.0014 326.1546 0001424 260.9571  99.1110 15.02547246 65173,15.02547246,0.0001424,LEO
56889,STARLINK-6169,2023,95.84,-1.0,+,43.0,Active,0,LEO,USA,USA,Unknown,Unknown,Unknown,1 56889U 23083P   24225.00959825  .00012293  00000+0  92278-3 0  9992,2 56889  43.0030 324.4278 0001466 267.8517  92.2157 15.02564811 64426,15.02564811,0.0001466,LEO
56890,STARLINK-5528,2023,95.84,-1.0,+,43.0,Active,0,LEO,USA,USA,Unknown,Unknown,Unknown,1 56890U 23083Q   24225.00071568  .00002944  00000+0  23282-3 0  9994,2 56890  43.0022 324.3589 0001360 268.8451  91.2236 15.02547943 64428,15.02547943,0.000136,LEO
56891,STARLINK-6213,2023,95.84,-1.0,+,43.0,Active,0,LEO,USA,USA,Unknown,Unknown,Unknown,1 56891U 23083R   24224.34147833 -.00000707  00000+0 -37216-4 0  9990,2 56891  43.0052 328.0110 0003499 260.6432  99.4015 15.02536346 65125,15.02536346,0.0003499,LEO
56892,STARLINK-6219,2023,95.84,-1.0,+,43.01,Active,0,LEO,USA,USA,Unknown,Unknown,Unknown,1 56892U 23083S   24224.99294522  .00007448  00000+0  56555-3 0  9993,2 56892  43.0061 324.3016 0002310 277.6540  82.4040 15.02557762 64426,15.02557762,0.000231,LEO
56893,STARLINK-6216,2023,95.84,-1.0,+,43.0,Active,0,LEO,USA,USA,Unknown,Unknown,Unknown,1 56893U 23083T   24225.00293761  .00011374  00000+0  85526-3 0  9994,2 56893  43.0039 324.3766 0001701 266.2763  93.7885 15.02556110 64426,15.0255611,0.0001701,LEO
56894,STARLINK-6144,2023,95.84,-1.0,+,43.0,Active,0,LEO,USA,USA,Unknown,Unknown,Unknown,1 56894U 23083U   24224.99405535  .00004275  00000+0  33120-3 0  9991,2 56894  43.0041 324.3099 0001938 260.4220  99.6404 15.02551478 64429,15.02551478,0.0001938,LEO
56895,STARLINK-6208,2023,95.84,-1.0,+,43.0,Active,0,LEO,USA,USA,Unknown,Unknown,Unknown,1 56895U 23083V   24224.99627732  .00009720  00000+0  73320-3 0  9993,2 56895  43.0028 324.3257 0001750 270.8806  89.1836 15.02556267 65221,15.02556267,0.000175,LEO
